#cP2014  5  3  0  0  0.00000000      96 ORBIT IGb08 HLM  IGS
## 1790 518400.00000000   900.00000000 56780 0.0000000000000
+   32   G01G02G03G04G05G06G07G08G09G10G11G12G13G14G15G16G17
+        G18G19G20G21G22G23G24G25G26G27G28G29G30G31G32  0  0
+          0  0  0  0  0  0  0  0  0  0  0  0  0  0  0  0  0
+          0  0  0  0  0  0  0  0  0  0  0  0  0  0  0  0  0
+          0  0  0  0  0  0  0  0  0  0  0  0  0  0  0  0  0
++         2  2  2  2  2  0  2  2  3  2  2  3  2  2  2  3  3
++         2  2  2  2  2  2  2  2  2  2  2  2  0  3  2  0  0
++         0  0  0  0  0  0  0  0  0  0  0  0  0  0  0  0  0
++         0  0  0  0  0  0  0  0  0  0  0  0  0  0  0  0  0
++         0  0  0  0  0  0  0  0  0  0  0  0  0  0  0  0  0
%c G  cc GPS ccc cccc cccc cccc cccc ccccc ccccc ccccc ccccc
%c cc cc ccc ccc cccc cccc cccc cccc ccccc ccccc ccccc ccccc
%f  1.2500000  1.025000000  0.00000000000  0.000000000000000
%f  0.0000000  0.000000000  0.00000000000  0.000000000000000
%i    0    0    0    0      0      0      0      0         0
%i    0    0    0    0      0      0      0      0         0
/* FINAL ORBIT COMBINATION FROM WEIGHTED AVERAGE OF:        
/* cod emr esa gfz grg jpl mit ngs sio                      
/* REFERENCED TO IGS TIME (IGST) AND TO WEIGHTED MEAN POLE: 
/* PCV:IGS08_1788 OL/AL:FES2004  NONE     Y  ORB:CMB CLK:CMB
*  2014  5  3 18 45  0.00000000
PG01 -14951.797080 -13243.719944 -17603.737570     10.949040  7  7  6 112       
PG02  -9693.604190  14484.576263  20200.203350    493.255480  6  6  4 118       
PG03   4480.807284 -24854.830543  -8507.561997    359.965976  3  6  6 122       
PG04 -22941.610438   7165.103746  11249.643880      6.857114  4  6  5 104       
PG05   -785.473117  21918.295049  14826.843125   -375.153616  6  6  5  82       
PG06  11202.326202 -10112.123303  21664.051100 999999.999999
PG07 -25146.185399  -6431.930906   6482.312386    342.238532  5  8  5  81       
PG08 -26526.164954  -2478.509731  -3513.899863     13.319148  3  8  3 111       
PG09 -25725.109987   3045.297352  -6824.868304    324.846082  5  7  4 112       
PG10 -13915.018616   6716.725267  21265.512253   -124.056950  6  8  6 120       
PG11  -7514.013783 -15416.958773 -20788.782950   -485.895864 10  9  4 127       
PG12  11274.589340  24182.973323    316.629992    202.588464  7  7  6 100       
PG13 -13769.297309  -6266.920677  21710.225288      3.455093  5  8  3  98       
PG14  19921.199306 -10707.543867 -13587.046000    176.135896  6  6  5  95       
PG15    220.754472  21543.374041 -15398.562759   -177.423526  7  8  4 118       
PG16   1565.118791 -21515.272042  15193.129496   -220.243882  7  9  7 129       
PG17 -19545.778294  11977.980600 -12956.655429    -90.190741  7  7  9 123       
PG18  18560.152396  11220.806521 -15099.259863    317.038514  6  6  7 114       
PG19   3811.696327 -21448.701904 -15008.038841   -454.735154  5  9  6 113       
PG20 -14112.302157 -22509.183321   1085.261331    185.809076  8  8  6 111       
PG21  26199.389029   4420.012043   4211.405753   -358.967815  5  7  6  87       
PG22  16099.636074  -2922.376303 -20732.313197    231.445253  5  7  4 111       
PG23  -5641.293605 -16833.594659  19727.056675    -17.529197  5 10  6 121       
PG24   9917.931812  14529.401378 -19949.525709    -27.777238  6  8  5 112       
PG25  17164.121257  16870.851484  11314.855850     23.169571  4  7  7 116       
PG26 -11318.547511  22707.899828  -7969.166074     89.908249  6  7  3 109       
PG27  11964.158262 -23358.565372  -3884.719347    -17.885171  6  7  6  88       
PG28 -15844.124918  -2409.108018 -20607.888622    352.010039  3  6  2 118       
PG29  13143.965602   7469.288429  21877.106049    529.947635  4  4  4 117       
PG30 -26330.369244  -1139.261370  -3422.322506 999999.999999
PG31  20080.815796  -8694.066537  15420.817736    334.252232  6  7  6 113       
PG32  -3489.109434 -25164.333965  -8582.201102   -436.629334  4  6  5 106       
*  2014  5  3 19  0  0.00000000
PG01 -12857.037037 -13315.196569 -19128.208949     10.950413  7  7  6 117       
PG02 -11903.345180  14339.704043  19028.940407    493.257613  7  5  4 121       
PG03   5055.628164 -25442.615180  -5850.525831    359.969960  3  6  6 113       
PG04 -24120.471325   6874.458650   8781.357677      6.856853  4  6  4  72       
PG05  -1848.938741  20423.958329  16751.841447   -375.151671  6  6  5  92       
PG06  12406.125626  -7889.058112  21946.956184 999999.999999
PG07 -24261.558172  -6570.727047   9156.277226    342.242366  6  9  5  90       
PG08 -26757.812652  -2620.146483   -637.830337     13.318866  2  8  2 118       
PG09 -26275.282804   2861.772281  -4026.127478    324.848904  5  7  4  99       
PG10 -15080.764656   4505.274892  21094.455172   -124.057839  6  8  6 114       
PG11  -5299.795802 -16104.508493 -20933.889160   -485.898716 10  9  4 125       
PG12  11076.766410  24146.343181  -2574.403156    202.590476  7  7  5 107       
PG13 -12246.747276  -8276.107703  21932.718902      3.451446  5  9  3  88       
PG14  19072.475236  -9206.545515 -15718.170701    176.132973  7  6  5 115       
PG15   -806.842762  22859.324868 -13308.063700   -177.425365  7  8  4 111       
PG16   2493.623048 -19887.263858  17184.495924   -220.242386  7  9  8 123       
PG17 -18791.605072  10491.413480 -15153.499971    -90.193582  7  5  8 123       
PG18  19155.056388  12807.917666 -13043.217237    317.040533  6  6  7 113       
PG19   4927.206568 -22594.165938 -12780.670704   -454.737130  6  9  6 110       
PG20 -13812.047734 -22679.997426  -1697.748192    185.812328  8  8  6 110       
PG21  25636.380885   4693.881656   6888.369841   -358.969863  6  7  5  98       
PG22  17186.522530   -795.119805 -20061.059927    231.447924  4  7  4 105       
PG23  -4365.517317 -18602.478832  18372.623554    -17.532043  6 10  6 121       
PG24   7585.168360  14585.264311 -20901.847726    -27.778148  6  8  5 107       
PG25  17561.965504  17966.417285   8754.604446     23.170242  5  7  7 118       
PG26 -11900.695814  23122.372055  -5199.284372     89.897716  7  7  2 106       
PG27  12325.154299 -23469.525050  -1039.128800    -17.883941  6  7  6  96       
PG28 -16794.248175  -4622.821544 -19491.255010    352.012606  4  5  2 112       
PG29  11742.364186   9529.823462  21878.111010    529.950376  3  5  4 121       
PG30 -26531.183318  -1418.890427   -583.977833 999999.999999
PG31  21673.495114  -8475.892574  13234.291439    334.252209  6  7  6 111       
PG32  -2833.540701 -24230.759319 -11074.801174   -436.622051  4  7  6 106       
*  2014  5  3 19 15  0.00000000
PG01 -10614.422491 -13501.088948 -20325.636096     10.951658  7  6  6 117       
PG02 -13973.487867  14292.836015  17532.988598    493.259387  6  5  5 114       
PG03   5505.179010 -25770.287865  -3093.198555    359.975173  5  6  6 130       
PG04 -25023.154664   6631.894350   6162.135668      6.857053  5  6  4 106       
PG05  -3092.243548  18813.987955  18385.940701   -375.149692  6  5  5  82       
PG06  13734.204943  -5728.186910  21846.045493 999999.999999
PG07 -23093.796098  -6761.857120  11675.996000    342.246122  6  9  5  83       
PG08 -26676.202541  -2719.704395   2248.831100     13.319008     8  1 117       
PG09 -26517.586575   2694.323888  -1159.490669    324.851840  5  7  4 100       
PG10 -16328.648037   2392.039489  20550.395726   -124.058410  6  8  6 119       
PG11  -3117.312085 -16884.347303 -20733.698914   -485.901296 10  9  4 130       
PG12  10715.952596  23840.241186  -5421.774865    202.592489  7  6  5  99       
PG13 -10832.867224 -10369.494963  21773.040255      3.448221  6  9  3 102       
PG14  18183.037566  -7468.917613 -17573.036613    176.130065  7  6  5 104       
PG15  -1662.439144  23999.163485 -10986.030161   -177.427459  7  8  4 109       
PG16   3611.591034 -18130.447386  18874.798373   -220.240627  7  9  8 121       
PG17 -17996.958635   8762.477472 -17082.421838    -90.196621  6  4  7 132       
PG18  19691.940067  14153.040745 -10760.573071    317.042526  7  6  6 111       
PG19   5837.934531 -23574.545706 -10329.908779   -454.739147  6  9  6 109       
PG20 -13341.134924 -22610.372957  -4451.712755    185.815827  9  8  6 109       
PG21  24799.367900   5002.619175   9451.969984   -358.972151  6  8  5 104       
PG22  18317.544547   1196.870722 -19039.425959    231.450561  4  7  4 110       
PG23  -3259.756311 -20285.492972  16700.176332    -17.534879  6 10  6 127       
PG24   5170.356307  14765.535722 -21495.810157    -27.779153  6  8  5 112       
PG25  17860.112143  18785.521522   6044.435695     23.170940  5  7  7 120       
PG26 -12289.072479  23299.840338  -2339.576198     89.887300  7  7  3 110       
PG27  12529.051440 -23312.726166   1824.410428    -17.882621  5  7  5  75       
PG28 -17791.557355  -6644.938491 -18022.843459    352.015317  4  6  2 117       
PG29  10464.176610  11643.970969  21504.188742    529.952779  4  6  4 121       
PG30 -26424.859660  -1674.001550   2264.399423 999999.999999
PG31  23017.695593  -8344.588074  10825.347467    334.252215  6  7  6 111       
PG32  -2006.411183 -23092.071180 -13381.669133   -436.614959  4  7  6  95       
EOF
